[
  {
    "name": "Lavinia Diwell",
    "address": "62067 Fieldstone Place",
    "city": "Fier",
    "zip": "789729"
  },
  {
    "name": "Karel Acome",
    "address": "5121 Vermont Park",
    "city": "Mercedes",
    "zip": "466106"
  },
  {
    "name": "Nyssa Extance",
    "address": "86406 Village Street",
    "city": "Hòa Bình",
    "zip": "099944"
  },
  {
    "name": "Hurley Stutely",
    "address": "121 Charing Cross Road",
    "city": "Tanahwurung",
    "zip": "885974"
  },
  {
    "name": "Merna Franzolini",
    "address": "78 West Circle",
    "city": "Shencang",
    "zip": "838654"
  },
  {
    "name": "Karry Gillson",
    "address": "4600 Mosinee Trail",
    "city": "Tierralta",
    "zip": "994513"
  },
  {
    "name": "Darb Phlippi",
    "address": "69 Anniversary Drive",
    "city": "Chengxi",
    "zip": "882360"
  },
  {
    "name": "Trenna Hedderly",
    "address": "58661 Hoffman Junction",
    "city": "Gobō",
    "zip": "386581"
  },
  {
    "name": "Rollo Marde",
    "address": "097 Quincy Park",
    "city": "Gāvbandī",
    "zip": "552742"
  },
  {
    "name": "Trix Flecknell",
    "address": "268 Little Fleur Circle",
    "city": "Töysä",
    "zip": "165594"
  },
  {
    "name": "Meagan Loughran",
    "address": "49 Grover Center",
    "city": "Gibgos",
    "zip": "752304"
  },
  {
    "name": "Ettore Ablewhite",
    "address": "0692 Reindahl Street",
    "city": "Kapchorwa",
    "zip": "699935"
  },
  {
    "name": "Lay Dalgliesh",
    "address": "45 Harper Plaza",
    "city": "Belfast",
    "zip": "519955"
  },
  {
    "name": "Jarad Guitonneau",
    "address": "14804 Oriole Circle",
    "city": "Beranci",
    "zip": "435062"
  },
  {
    "name": "Lucas Foulcher",
    "address": "6 Tomscot Plaza",
    "city": "Daytona Beach",
    "zip": "146548"
  },
  {
    "name": "Claudio Smallman",
    "address": "037 Northwestern Pass",
    "city": "Shijing",
    "zip": "049142"
  },
  {
    "name": "Diane-marie Riply",
    "address": "19 Magdeline Junction",
    "city": "San Jose",
    "zip": "260988"
  },
  {
    "name": "Graham Prosch",
    "address": "549 Donald Hill",
    "city": "Waterbury",
    "zip": "043563"
  },
  {
    "name": "Malvina Foxworthy",
    "address": "10281 Washington Drive",
    "city": "Porsgrunn",
    "zip": "432896"
  },
  {
    "name": "Kippie Shetliff",
    "address": "7 Arrowood Crossing",
    "city": "Salem",
    "zip": "090641"
  },
  {
    "name": "Anthiathia Masser",
    "address": "0 Reindahl Circle",
    "city": "Fengmu",
    "zip": "644548"
  },
  {
    "name": "Connie Berard",
    "address": "1415 Blaine Trail",
    "city": "Madagali",
    "zip": "366379"
  },
  {
    "name": "Yvon Kohter",
    "address": "25 Lerdahl Plaza",
    "city": "Luchingu",
    "zip": "961455"
  },
  {
    "name": "Julieta Bever",
    "address": "22 Arizona Road",
    "city": "Lumatil",
    "zip": "483972"
  },
  {
    "name": "Torrin Alaway",
    "address": "99 American Ash Crossing",
    "city": "Jianxin",
    "zip": "456820"
  },
  {
    "name": "Ange Ferens",
    "address": "39536 Division Hill",
    "city": "Qiansuo",
    "zip": "476022"
  },
  {
    "name": "Galvin Peacop",
    "address": "425 Westerfield Drive",
    "city": "Camanducaia",
    "zip": "138249"
  },
  {
    "name": "Lenka Robarts",
    "address": "2 Rusk Drive",
    "city": "Beixiaoying",
    "zip": "880730"
  },
  {
    "name": "Chrotoem Norwood",
    "address": "614 Gateway Terrace",
    "city": "Cali",
    "zip": "219726"
  },
  {
    "name": "Barbara-anne Thonason",
    "address": "10 Homewood Court",
    "city": "Hecun",
    "zip": "613281"
  },
  {
    "name": "Victoir Endricci",
    "address": "7668 Clyde Gallagher Plaza",
    "city": "Gangmian",
    "zip": "693138"
  },
  {
    "name": "Ermin Rauprich",
    "address": "3 Eastwood Street",
    "city": "Mathambgwane",
    "zip": "058343"
  },
  {
    "name": "Clareta Grooby",
    "address": "2 Jenna Trail",
    "city": "Regente Feijó",
    "zip": "733145"
  },
  {
    "name": "Hector Beckworth",
    "address": "18 Manley Point",
    "city": "Zhaoguli",
    "zip": "169632"
  },
  {
    "name": "Leia Huckett",
    "address": "5 Prairieview Hill",
    "city": "Bystřany",
    "zip": "986365"
  },
  {
    "name": "Jordain Icke",
    "address": "8 Fallview Center",
    "city": "Sawangan",
    "zip": "452805"
  },
  {
    "name": "Archibaldo Codd",
    "address": "36338 Bunting Pass",
    "city": "Bailiang",
    "zip": "407244"
  },
  {
    "name": "Rosie Webb-Bowen",
    "address": "524 Sheridan Road",
    "city": "Gujō",
    "zip": "896941"
  },
  {
    "name": "Ricoriki Vause",
    "address": "19257 Swallow Center",
    "city": "Lamas",
    "zip": "685065"
  },
  {
    "name": "Timothy Harverson",
    "address": "7815 Thackeray Circle",
    "city": "Andkhōy",
    "zip": "702991"
  },
  {
    "name": "Garrot Stode",
    "address": "050 Gulseth Center",
    "city": "Juxing",
    "zip": "282384"
  },
  {
    "name": "Glenn Bubb",
    "address": "5387 Luster Hill",
    "city": "Juwana",
    "zip": "705776"
  },
  {
    "name": "Cazzie Thorogood",
    "address": "723 Basil Circle",
    "city": "Kotatengah",
    "zip": "184263"
  },
  {
    "name": "Claudianus Wolvey",
    "address": "650 Forest Run Parkway",
    "city": "Iwo",
    "zip": "145212"
  },
  {
    "name": "Darcee Townshend",
    "address": "648 Weeping Birch Trail",
    "city": "Bessonovka",
    "zip": "342621"
  },
  {
    "name": "Sile Evans",
    "address": "5596 Northwestern Alley",
    "city": "Dorowa Mining Lease",
    "zip": "045954"
  },
  {
    "name": "Kiah Lamdin",
    "address": "0 Pleasure Drive",
    "city": "Karlskrona",
    "zip": "514109"
  },
  {
    "name": "Konrad Cheston",
    "address": "177 Melody Lane",
    "city": "Gazli",
    "zip": "801608"
  },
  {
    "name": "Faun Merrell",
    "address": "3219 Fordem Junction",
    "city": "Pato Branco",
    "zip": "202182"
  },
  {
    "name": "Dela De Hooge",
    "address": "6 8th Street",
    "city": "Yipeng",
    "zip": "603135"
  },
  {
    "name": "Ronald Gravenall",
    "address": "58673 Hagan Avenue",
    "city": "Kīevka",
    "zip": "670522"
  },
  {
    "name": "Banky Trusse",
    "address": "5 Claremont Crossing",
    "city": "Haikou",
    "zip": "714891"
  },
  {
    "name": "Eldon Crackett",
    "address": "025 Tennessee Junction",
    "city": "Tawau",
    "zip": "197129"
  },
  {
    "name": "Tabor Edlin",
    "address": "9373 Roth Avenue",
    "city": "Buchach",
    "zip": "306912"
  },
  {
    "name": "Juli Hughesdon",
    "address": "8641 Novick Road",
    "city": "Hengqu",
    "zip": "835597"
  },
  {
    "name": "Cortie Llorens",
    "address": "104 Kim Drive",
    "city": "Isanlu Itedoijowa",
    "zip": "883344"
  },
  {
    "name": "Margaret Southouse",
    "address": "395 Mcguire Court",
    "city": "Angra dos Reis",
    "zip": "228452"
  },
  {
    "name": "Waylon McClean",
    "address": "89 Summit Drive",
    "city": "Namangan",
    "zip": "585663"
  },
  {
    "name": "Richart Newlands",
    "address": "0862 Service Place",
    "city": "Vaiusu",
    "zip": "587918"
  },
  {
    "name": "Genevieve Cairney",
    "address": "02 Independence Park",
    "city": "Nossa Senhora do Socorro",
    "zip": "639516"
  },
  {
    "name": "Ford Meighan",
    "address": "9 Anthes Alley",
    "city": "Viligili",
    "zip": "950015"
  },
  {
    "name": "Larina Lapping",
    "address": "12 Hanson Terrace",
    "city": "Dvůr Králové nad Labem",
    "zip": "894883"
  },
  {
    "name": "Ardelia Vasyukhin",
    "address": "886 Spenser Parkway",
    "city": "Lichinga",
    "zip": "424315"
  },
  {
    "name": "Raf Brettelle",
    "address": "763 Bartillon Road",
    "city": "Purificación",
    "zip": "892523"
  },
  {
    "name": "Nicolea Gaythwaite",
    "address": "16308 Shasta Way",
    "city": "Cigadog",
    "zip": "858578"
  },
  {
    "name": "Julieta Bevington",
    "address": "587 Caliangt Alley",
    "city": "Taganskiy",
    "zip": "793892"
  },
  {
    "name": "Danice Halsho",
    "address": "117 David Place",
    "city": "Puerto Parra",
    "zip": "093962"
  },
  {
    "name": "Eugen Dawbury",
    "address": "21 Oriole Pass",
    "city": "Babica",
    "zip": "656479"
  },
  {
    "name": "Amargo Stoner",
    "address": "6 Melody Hill",
    "city": "Decatur",
    "zip": "372221"
  },
  {
    "name": "Andrea Tonry",
    "address": "40604 Pond Crossing",
    "city": "Kučevo",
    "zip": "026482"
  },
  {
    "name": "Martie Beniesh",
    "address": "9 Nevada Plaza",
    "city": "Tarutung",
    "zip": "191192"
  },
  {
    "name": "Nissa Scoates",
    "address": "0084 Michigan Street",
    "city": "Kalipucang",
    "zip": "412905"
  },
  {
    "name": "Obediah Thewless",
    "address": "70293 Starling Hill",
    "city": "Cilegong",
    "zip": "671201"
  },
  {
    "name": "Kyla M'Quharge",
    "address": "37628 Stoughton Street",
    "city": "Meïganga",
    "zip": "714547"
  },
  {
    "name": "Renell Takis",
    "address": "37 Mayfield Park",
    "city": "Bogandinskiy",
    "zip": "857711"
  },
  {
    "name": "Ashlen Mordon",
    "address": "18 Kropf Road",
    "city": "Радишани",
    "zip": "917991"
  },
  {
    "name": "Esteban Shoobridge",
    "address": "11 Northridge Avenue",
    "city": "Rejoagung",
    "zip": "028808"
  },
  {
    "name": "Quintana Breach",
    "address": "0770 Heath Crossing",
    "city": "Burao",
    "zip": "618782"
  },
  {
    "name": "Ruprecht Romaine",
    "address": "56872 Charing Cross Junction",
    "city": "Pereiras",
    "zip": "020182"
  },
  {
    "name": "Husain Fenlon",
    "address": "0759 Ruskin Junction",
    "city": "Yangzi Jianglu",
    "zip": "338125"
  },
  {
    "name": "Belia Truder",
    "address": "88281 Lighthouse Bay Center",
    "city": "Santa Ana",
    "zip": "746273"
  },
  {
    "name": "Hagan Burdas",
    "address": "9 Hanson Hill",
    "city": "Carolina",
    "zip": "136504"
  },
  {
    "name": "Alika Grzegorzewicz",
    "address": "8 Kipling Pass",
    "city": "Suzhou",
    "zip": "437789"
  },
  {
    "name": "Carl Aspin",
    "address": "18028 Oak Point",
    "city": "Gjinkar",
    "zip": "710810"
  },
  {
    "name": "Kristin Marder",
    "address": "6 Merrick Lane",
    "city": "Simi Valley",
    "zip": "299032"
  },
  {
    "name": "Hunter Scalia",
    "address": "74928 Stuart Alley",
    "city": "Verin Dvin",
    "zip": "030697"
  },
  {
    "name": "Eliot Olphert",
    "address": "027 Meadow Valley Way",
    "city": "Nicola Town",
    "zip": "341147"
  },
  {
    "name": "Hesther Hammerson",
    "address": "4 Loeprich Avenue",
    "city": "Liqi",
    "zip": "699966"
  },
  {
    "name": "Wallace Lapping",
    "address": "7005 Loftsgordon Center",
    "city": "Arras",
    "zip": "683060"
  },
  {
    "name": "Berty Kuhle",
    "address": "3 Londonderry Parkway",
    "city": "Clearwater",
    "zip": "966640"
  },
  {
    "name": "Jerrie Hegley",
    "address": "3175 Warbler Place",
    "city": "Veselí nad Lužnicí",
    "zip": "248098"
  },
  {
    "name": "Darin Kummerlowe",
    "address": "531 Michigan Alley",
    "city": "Mananara",
    "zip": "322251"
  },
  {
    "name": "Sibyl Ballsdon",
    "address": "58510 Sachs Circle",
    "city": "La Goulette",
    "zip": "459736"
  },
  {
    "name": "Tamma Timothy",
    "address": "2781 Elgar Street",
    "city": "Vol’no-Nadezhdinskoye",
    "zip": "070236"
  },
  {
    "name": "Adrien Quarmby",
    "address": "538 Straubel Lane",
    "city": "Yaozhou",
    "zip": "898894"
  },
  {
    "name": "Berk Overil",
    "address": "7 Dayton Center",
    "city": "Balengbeng",
    "zip": "239116"
  },
  {
    "name": "Daniel Van der Kruys",
    "address": "7312 6th Drive",
    "city": "San Antonio Huista",
    "zip": "894336"
  },
  {
    "name": "Blithe Axelbey",
    "address": "6 Farwell Crossing",
    "city": "Duwakkandung",
    "zip": "082502"
  },
  {
    "name": "Joe Cliburn",
    "address": "899 Cottonwood Avenue",
    "city": "Bako",
    "zip": "481505"
  },
  {
    "name": "Clementius Flaherty",
    "address": "01244 Continental Place",
    "city": "Yongshan",
    "zip": "259027"
  }
]
